QIANFAN-69              
1 62799U 25016Q   26066.27862558  .00000040  00000+0  42587-4 0  9993
2 62799  88.9665  94.2001 0017977 100.3435 259.9744 13.51005432 58692
QIANFAN-70              
1 62800U 25016R   26066.22098938  .00000049  00000+0  57474-4 0  9994
2 62800  88.9686  94.3625 0017563  92.0434 268.2729 13.50997241 58646
QIANFAN-71              
1 62801U 25016S   26066.21682031  .00000042  00000+0  45981-4 0  9990
2 62801  88.9680  94.3373 0017872 103.6380 256.6763 13.50996684 58642
QIANFAN-72              
1 62802U 25016T   26066.23328957  .00000021  00000+0  12878-4 0  9993
2 62802  88.9671  94.3407 0021090 110.2024 250.1398 13.50996293 58635
QIANFAN-73              
1 63159U 25046A   26066.26014218  .00000168  00000+0  24148-3 0  9991
2 63159  88.9756 311.2938 0013195 237.5208 122.4668 13.50998860 58823
QIANFAN-74              
1 63160U 25046B   26066.24374095  .00000189  00000+0  27474-3 0  9991
2 63160  88.9756 311.1843 0001911  78.7702 281.3664 13.50998855 58887
QIANFAN-75              
1 63161U 25046C   26066.23088803  .00000074  00000+0  96546-4 0  9990
2 63161  88.9758 311.4207 0014348 241.5066 118.4641 13.50974429 58750
QIANFAN-76              
1 63162U 25046D   26066.22719345  .00000157  00000+0  22404-3 0  9995
2 63162  88.9756 311.4009 0011919 241.8085 118.1863 13.51006720 58769
QIANFAN-77              
1 63163U 25046E   26066.25734684  .00000416  00000+0  29303-3 0  9995
2 63163  88.9753 308.7100 0014657 169.1904 190.9591 13.96175956 60241
QIANFAN-78              
1 63164U 25046F   26066.26837488  .00000196  00000+0  28535-3 0  9994
2 63164  88.9756 311.2597 0013220 244.6744 115.3038 13.50999236 58845
QIANFAN-79              
1 63165U 25046G   26066.22324218  .00000197  00000+0  28653-3 0  9995
2 63165  88.9760 311.3753 0013092 242.9557 117.0259 13.51009312 58781
QIANFAN-80              
1 63166U 25046H   26066.23955175  .00000186  00000+0  26880-3 0  9997
2 63166  88.9757 311.0782 0011897 247.5453 112.4439 13.50998864 58949
QIANFAN-81              
1 63167U 25046J   26066.21772250  .00000154  00000+0  22020-3 0  9994
2 63167  88.9757 311.1483 0013032 235.3659 124.6264 13.50984601 58894
QIANFAN-82              
1 63168U 25046K   26066.25193662  .00000180  00000+0  25974-3 0  9993
2 63168  88.9757 311.1887 0011042 242.9546 117.0479 13.51000215 58885
QIANFAN-83              
1 63169U 25046L   26066.25786873  .00000304  00000+0  37887-3 0  9990
2 63169  88.9757 310.7984 0012585 220.8391 139.1824 13.62022352 59108
QIANFAN-84              
1 63170U 25046M   26066.27981054  .00000185  00000+0  26791-3 0  9991
2 63170  88.9757 311.3183 0013993 239.3772 120.6000 13.50962473 58812
QIANFAN-85              
1 63171U 25046N   26066.27660138  .00000179  00000+0  25869-3 0  9997
2 63171  88.9756 311.1900 0011463 241.6680 118.3315 13.51002941 58887
