[{"OBJECT_NAME":"QIANFAN-69","OBJECT_ID":"2025-016Q","EPOCH":"2026-03-07T06:41:13.250112","MEAN_MOTION":13.51005432,"ECCENTRICITY":0.00179777,"INCLINATION":88.9665,"RA_OF_ASC_NODE":94.2001,"ARG_OF_PERICENTER":100.3435,"MEAN_ANOMALY":259.9744,"EPHEMERIS_TYPE":0,"CLASSIFICATION_TYPE":"U","NORAD_CAT_ID":62799,"ELEMENT_SET_NO":999,"REV_AT_EPOCH":5869,"BSTAR":4.2587279e-5,"MEAN_MOTION_DOT":4.0e-7,"MEAN_MOTION_DDOT":0},{"OBJECT_NAME":"QIANFAN-70","OBJECT_ID":"2025-016R","EPOCH":"2026-03-07T05:18:13.482432","MEAN_MOTION":13.50997241,"ECCENTRICITY":0.00175636,"INCLINATION":88.9686,"RA_OF_ASC_NODE":94.3625,"ARG_OF_PERICENTER":92.0434,"MEAN_ANOMALY":268.2729,"EPHEMERIS_TYPE":0,"CLASSIFICATION_TYPE":"U","NORAD_CAT_ID":62800,"ELEMENT_SET_NO":999,"REV_AT_EPOCH":5864,"BSTAR":5.7473934e-5,"MEAN_MOTION_DOT":4.9e-7,"MEAN_MOTION_DDOT":0},{"OBJECT_NAME":"QIANFAN-71","OBJECT_ID":"2025-016S","EPOCH":"2026-03-07T05:12:13.274784","MEAN_MOTION":13.50996684,"ECCENTRICITY":0.00178725,"INCLINATION":88.968,"RA_OF_ASC_NODE":94.3373,"ARG_OF_PERICENTER":103.638,"MEAN_ANOMALY":256.6763,"EPHEMERIS_TYPE":0,"CLASSIFICATION_TYPE":"U","NORAD_CAT_ID":62801,"ELEMENT_SET_NO":999,"REV_AT_EPOCH":5864,"BSTAR":4.5981033e-5,"MEAN_MOTION_DOT":4.2e-7,"MEAN_MOTION_DDOT":0},{"OBJECT_NAME":"QIANFAN-72","OBJECT_ID":"2025-016T","EPOCH":"2026-03-07T05:35:56.218848","MEAN_MOTION":13.50996293,"ECCENTRICITY":0.00210909,"INCLINATION":88.9671,"RA_OF_ASC_NODE":94.3407,"ARG_OF_PERICENTER":110.2024,"MEAN_ANOMALY":250.1398,"EPHEMERIS_TYPE":0,"CLASSIFICATION_TYPE":"U","NORAD_CAT_ID":62802,"ELEMENT_SET_NO":999,"REV_AT_EPOCH":5863,"BSTAR":1.2877678e-5,"MEAN_MOTION_DOT":2.1e-7,"MEAN_MOTION_DDOT":0},{"OBJECT_NAME":"QIANFAN-73","OBJECT_ID":"2025-046A","EPOCH":"2026-03-07T06:14:36.284352","MEAN_MOTION":13.5099886,"ECCENTRICITY":0.00131952,"INCLINATION":88.9756,"RA_OF_ASC_NODE":311.2938,"ARG_OF_PERICENTER":237.5208,"MEAN_ANOMALY":122.4668,"EPHEMERIS_TYPE":0,"CLASSIFICATION_TYPE":"U","NORAD_CAT_ID":63159,"ELEMENT_SET_NO":999,"REV_AT_EPOCH":5882,"BSTAR":0.00024147962,"MEAN_MOTION_DOT":1.68e-6,"MEAN_MOTION_DDOT":0},{"OBJECT_NAME":"QIANFAN-74","OBJECT_ID":"2025-046B","EPOCH":"2026-03-07T05:50:59.218080","MEAN_MOTION":13.50998855,"ECCENTRICITY":0.00019117,"INCLINATION":88.9756,"RA_OF_ASC_NODE":311.1843,"ARG_OF_PERICENTER":78.7702,"MEAN_ANOMALY":281.3664,"EPHEMERIS_TYPE":0,"CLASSIFICATION_TYPE":"U","NORAD_CAT_ID":63160,"ELEMENT_SET_NO":999,"REV_AT_EPOCH":5888,"BSTAR":0.00027473734,"MEAN_MOTION_DOT":1.89e-6,"MEAN_MOTION_DDOT":0},{"OBJECT_NAME":"QIANFAN-75","OBJECT_ID":"2025-046C","EPOCH":"2026-03-07T05:32:28.725792","MEAN_MOTION":13.50974429,"ECCENTRICITY":0.0014348,"INCLINATION":88.9758,"RA_OF_ASC_NODE":311.4207,"ARG_OF_PERICENTER":241.5066,"MEAN_ANOMALY":118.4641,"EPHEMERIS_TYPE":0,"CLASSIFICATION_TYPE":"U","NORAD_CAT_ID":63161,"ELEMENT_SET_NO":999,"REV_AT_EPOCH":5875,"BSTAR":9.654638e-5,"MEAN_MOTION_DOT":7.4e-7,"MEAN_MOTION_DDOT":0},{"OBJECT_NAME":"QIANFAN-76","OBJECT_ID":"2025-046D","EPOCH":"2026-03-07T05:27:09.514080","MEAN_MOTION":13.5100672,"ECCENTRICITY":0.00119194,"INCLINATION":88.9756,"RA_OF_ASC_NODE":311.4009,"ARG_OF_PERICENTER":241.8085,"MEAN_ANOMALY":118.1863,"EPHEMERIS_TYPE":0,"CLASSIFICATION_TYPE":"U","NORAD_CAT_ID":63162,"ELEMENT_SET_NO":999,"REV_AT_EPOCH":5876,"BSTAR":0.00022403516,"MEAN_MOTION_DOT":1.57e-6,"MEAN_MOTION_DDOT":0},{"OBJECT_NAME":"QIANFAN-77","OBJECT_ID":"2025-046E","EPOCH":"2026-03-07T06:10:34.766976","MEAN_MOTION":13.96175956,"ECCENTRICITY":0.00146577,"INCLINATION":88.9753,"RA_OF_ASC_NODE":308.71,"ARG_OF_PERICENTER":169.1904,"MEAN_ANOMALY":190.9591,"EPHEMERIS_TYPE":0,"CLASSIFICATION_TYPE":"U","NORAD_CAT_ID":63163,"ELEMENT_SET_NO":999,"REV_AT_EPOCH":6024,"BSTAR":0.00029303082,"MEAN_MOTION_DOT":4.16e-6,"MEAN_MOTION_DDOT":0},{"OBJECT_NAME":"QIANFAN-78","OBJECT_ID":"2025-046F","EPOCH":"2026-03-07T06:26:27.589632","MEAN_MOTION":13.50999236,"ECCENTRICITY":0.00132206,"INCLINATION":88.9756,"RA_OF_ASC_NODE":311.2597,"ARG_OF_PERICENTER":244.6744,"MEAN_ANOMALY":115.3038,"EPHEMERIS_TYPE":0,"CLASSIFICATION_TYPE":"U","NORAD_CAT_ID":63164,"ELEMENT_SET_NO":999,"REV_AT_EPOCH":5884,"BSTAR":0.00028535471,"MEAN_MOTION_DOT":1.96e-6,"MEAN_MOTION_DDOT":0},{"OBJECT_NAME":"QIANFAN-79","OBJECT_ID":"2025-046G","EPOCH":"2026-03-07T05:21:28.124352","MEAN_MOTION":13.51009312,"ECCENTRICITY":0.00130927,"INCLINATION":88.976,"RA_OF_ASC_NODE":311.3753,"ARG_OF_PERICENTER":242.9557,"MEAN_ANOMALY":117.0259,"EPHEMERIS_TYPE":0,"CLASSIFICATION_TYPE":"U","NORAD_CAT_ID":63165,"ELEMENT_SET_NO":999,"REV_AT_EPOCH":5878,"BSTAR":0.00028653435,"MEAN_MOTION_DOT":1.97e-6,"MEAN_MOTION_DDOT":0},{"OBJECT_NAME":"QIANFAN-80","OBJECT_ID":"2025-046H","EPOCH":"2026-03-07T05:44:57.271200","MEAN_MOTION":13.50998864,"ECCENTRICITY":0.00118974,"INCLINATION":88.9757,"RA_OF_ASC_NODE":311.0782,"ARG_OF_PERICENTER":247.5453,"MEAN_ANOMALY":112.4439,"EPHEMERIS_TYPE":0,"CLASSIFICATION_TYPE":"U","NORAD_CAT_ID":63166,"ELEMENT_SET_NO":999,"REV_AT_EPOCH":5894,"BSTAR":0.0002688018,"MEAN_MOTION_DOT":1.86e-6,"MEAN_MOTION_DDOT":0},{"OBJECT_NAME":"QIANFAN-81","OBJECT_ID":"2025-046J","EPOCH":"2026-03-07T05:13:31.224000","MEAN_MOTION":13.50984601,"ECCENTRICITY":0.00130326,"INCLINATION":88.9757,"RA_OF_ASC_NODE":311.1483,"ARG_OF_PERICENTER":235.3659,"MEAN_ANOMALY":124.6264,"EPHEMERIS_TYPE":0,"CLASSIFICATION_TYPE":"U","NORAD_CAT_ID":63167,"ELEMENT_SET_NO":999,"REV_AT_EPOCH":5889,"BSTAR":0.00022019787,"MEAN_MOTION_DOT":1.54e-6,"MEAN_MOTION_DDOT":0},{"OBJECT_NAME":"QIANFAN-82","OBJECT_ID":"2025-046K","EPOCH":"2026-03-07T06:02:47.323968","MEAN_MOTION":13.51000215,"ECCENTRICITY":0.00110422,"INCLINATION":88.9757,"RA_OF_ASC_NODE":311.1887,"ARG_OF_PERICENTER":242.9546,"MEAN_ANOMALY":117.0479,"EPHEMERIS_TYPE":0,"CLASSIFICATION_TYPE":"U","NORAD_CAT_ID":63168,"ELEMENT_SET_NO":999,"REV_AT_EPOCH":5888,"BSTAR":0.0002597447,"MEAN_MOTION_DOT":1.8e-6,"MEAN_MOTION_DDOT":0},{"OBJECT_NAME":"QIANFAN-83","OBJECT_ID":"2025-046L","EPOCH":"2026-03-07T06:11:19.858272","MEAN_MOTION":13.62022352,"ECCENTRICITY":0.00125854,"INCLINATION":88.9757,"RA_OF_ASC_NODE":310.7984,"ARG_OF_PERICENTER":220.8391,"MEAN_ANOMALY":139.1824,"EPHEMERIS_TYPE":0,"CLASSIFICATION_TYPE":"U","NORAD_CAT_ID":63169,"ELEMENT_SET_NO":999,"REV_AT_EPOCH":5910,"BSTAR":0.00037886823,"MEAN_MOTION_DOT":3.04e-6,"MEAN_MOTION_DDOT":0},{"OBJECT_NAME":"QIANFAN-84","OBJECT_ID":"2025-046M","EPOCH":"2026-03-07T06:42:55.630656","MEAN_MOTION":13.50962473,"ECCENTRICITY":0.00139931,"INCLINATION":88.9757,"RA_OF_ASC_NODE":311.3183,"ARG_OF_PERICENTER":239.3772,"MEAN_ANOMALY":120.6,"EPHEMERIS_TYPE":0,"CLASSIFICATION_TYPE":"U","NORAD_CAT_ID":63170,"ELEMENT_SET_NO":999,"REV_AT_EPOCH":5881,"BSTAR":0.00026791128,"MEAN_MOTION_DOT":1.85e-6,"MEAN_MOTION_DDOT":0},{"OBJECT_NAME":"QIANFAN-85","OBJECT_ID":"2025-046N","EPOCH":"2026-03-07T06:38:18.359232","MEAN_MOTION":13.51002941,"ECCENTRICITY":0.00114634,"INCLINATION":88.9756,"RA_OF_ASC_NODE":311.19,"ARG_OF_PERICENTER":241.668,"MEAN_ANOMALY":118.3315,"EPHEMERIS_TYPE":0,"CLASSIFICATION_TYPE":"U","NORAD_CAT_ID":63171,"ELEMENT_SET_NO":999,"REV_AT_EPOCH":5888,"BSTAR":0.00025868773,"MEAN_MOTION_DOT":1.79e-6,"MEAN_MOTION_DDOT":0}]
